[
  {
    "COMMENT": "GENERATED VIA SPACETRACK.ORG API",
    "ORIGINATOR": "18 SPCS",
    "NORAD_CAT_ID": "43682",
    "OBJECT_NAME": "H-2A R/B",
    "OBJECT_TYPE": "ROCKET BODY",
    "CLASSIFICATION_TYPE": "U",
    "INTLDES": "18084L",
    "EPOCH": "2023-07-26 16:32:41",
    "EPOCH_MICROSECONDS": "116992",
    "MEAN_MOTION": "15.09042415",
    "ECCENTRICITY": "0.0050397",
    "INCLINATION": "98.893",
    "RA_OF_ASC_NODE": "238.0423",
    "ARG_OF_PERICENTER": "14.889",
    "MEAN_ANOMALY": "345.3805",
    "EPHEMERIS_TYPE": "0",
    "ELEMENT_SET_NO": "999",
    "REV_AT_EPOCH": "26017",
    "BSTAR": "0.00047218",
    "MEAN_MOTION_DOT": "0.00007615",
    "MEAN_MOTION_DDOT": "0",
    "FILE": "3963989",
    "TLE_LINE0": "0 H-2A R/B",
    "TLE_LINE1": "1 43682U 18084L   23207.68936478  .00007615  00000-0  47218-3 0  9993",
    "TLE_LINE2": "2 43682  98.8930 238.0423 0050397  14.8890 345.3805 15.09042415260173",
    "OBJECT_ID": "2018-084L",
    "OBJECT_NUMBER": "43682",
    "SEMIMAJOR_AXIS": "6917.262",
    "PERIOD": "95.425",
    "APOGEE": "573.988",
    "PERIGEE": "504.266",
    "DECAYED": "0"
  },
  {
    "COMMENT": "GENERATED VIA SPACETRACK.ORG API",
    "ORIGINATOR": "18 SPCS",
    "NORAD_CAT_ID": "43682",
    "OBJECT_NAME": "H-2A R/B",
    "OBJECT_TYPE": "ROCKET BODY",
    "CLASSIFICATION_TYPE": "U",
    "INTLDES": "18084L",
    "EPOCH": "2023-07-27 00:30:05",
    "EPOCH_MICROSECONDS": "779008",
    "MEAN_MOTION": "15.09046554",
    "ECCENTRICITY": "0.0050378",
    "INCLINATION": "98.893",
    "RA_OF_ASC_NODE": "238.4262",
    "ARG_OF_PERICENTER": "13.8413",
    "MEAN_ANOMALY": "346.4179",
    "EPHEMERIS_TYPE": "0",
    "ELEMENT_SET_NO": "999",
    "REV_AT_EPOCH": "26022",
    "BSTAR": "0.00046471",
    "MEAN_MOTION_DOT": "0.00007494",
    "MEAN_MOTION_DDOT": "0",
    "FILE": "3964647",
    "TLE_LINE0": "0 H-2A R/B",
    "TLE_LINE1": "1 43682U 18084L   23208.02090022  .00007494  00000-0  46471-3 0  9993",
    "TLE_LINE2": "2 43682  98.8930 238.4262 0050378  13.8413 346.4179 15.09046554260227",
    "OBJECT_ID": "2018-084L",
    "OBJECT_NUMBER": "43682",
    "SEMIMAJOR_AXIS": "6917.249",
    "PERIOD": "95.424",
    "APOGEE": "573.962",
    "PERIGEE": "504.266",
    "DECAYED": "0"
  },
  {
    "COMMENT": "GENERATED VIA SPACETRACK.ORG API",
    "ORIGINATOR": "18 SPCS",
    "NORAD_CAT_ID": "43682",
    "OBJECT_NAME": "H-2A R/B",
    "OBJECT_TYPE": "ROCKET BODY",
    "CLASSIFICATION_TYPE": "U",
    "INTLDES": "18084L",
    "EPOCH": "2023-07-27 14:49:25",
    "EPOCH_MICROSECONDS": "907808",
    "MEAN_MOTION": "15.09053982",
    "ECCENTRICITY": "0.0050348",
    "INCLINATION": "98.8931",
    "RA_OF_ASC_NODE": "239.1172",
    "ARG_OF_PERICENTER": "11.9135",
    "MEAN_ANOMALY": "348.3268",
    "EPHEMERIS_TYPE": "0",
    "ELEMENT_SET_NO": "999",
    "REV_AT_EPOCH": "26031",
    "BSTAR": "0.00040175",
    "MEAN_MOTION_DOT": "0.00006467",
    "MEAN_MOTION_DDOT": "0",
    "FILE": "3964766",
    "TLE_LINE0": "0 H-2A R/B",
    "TLE_LINE1": "1 43682U 18084L   23208.61766097  .00006467  00000-0  40175-3 0  9994",
    "TLE_LINE2": "2 43682  98.8931 239.1172 0050348  11.9135 348.3268 15.09053982260316",
    "OBJECT_ID": "2018-084L",
    "OBJECT_NUMBER": "43682",
    "SEMIMAJOR_AXIS": "6917.226",
    "PERIOD": "95.424",
    "APOGEE": "573.918",
    "PERIGEE": "504.265",
    "DECAYED": "0"
  },
  {
    "COMMENT": "GENERATED VIA SPACETRACK.ORG API",
    "ORIGINATOR": "18 SPCS",
    "NORAD_CAT_ID": "43682",
    "OBJECT_NAME": "H-2A R/B",
    "OBJECT_TYPE": "ROCKET BODY",
    "CLASSIFICATION_TYPE": "U",
    "INTLDES": "18084L",
    "EPOCH": "2023-07-27 14:49:25",
    "EPOCH_MICROSECONDS": "907808",
    "MEAN_MOTION": "15.09053982",
    "ECCENTRICITY": "0.0050348",
    "INCLINATION": "98.8931",
    "RA_OF_ASC_NODE": "239.1172",
    "ARG_OF_PERICENTER": "11.9135",
    "MEAN_ANOMALY": "348.3268",
    "EPHEMERIS_TYPE": "0",
    "ELEMENT_SET_NO": "999",
    "REV_AT_EPOCH": "26031",
    "BSTAR": "0.00040175",
    "MEAN_MOTION_DOT": "0.00006467",
    "MEAN_MOTION_DDOT": "0",
    "FILE": "3964919",
    "TLE_LINE0": "0 H-2A R/B",
    "TLE_LINE1": "1 43682U 18084L   23208.61766097  .00006467  00000-0  40175-3 0  9994",
    "TLE_LINE2": "2 43682  98.8931 239.1172 0050348  11.9135 348.3268 15.09053982260316",
    "OBJECT_ID": "2018-084L",
    "OBJECT_NUMBER": "43682",
    "SEMIMAJOR_AXIS": "6917.226",
    "PERIOD": "95.424",
    "APOGEE": "573.918",
    "PERIGEE": "504.265",
    "DECAYED": "0"
  },
  {
    "COMMENT": "GENERATED VIA SPACETRACK.ORG API",
    "ORIGINATOR": "18 SPCS",
    "NORAD_CAT_ID": "43682",
    "OBJECT_NAME": "H-2A R/B",
    "OBJECT_TYPE": "ROCKET BODY",
    "CLASSIFICATION_TYPE": "U",
    "INTLDES": "18084L",
    "EPOCH": "2023-07-28 13:06:10",
    "EPOCH_MICROSECONDS": "30752",
    "MEAN_MOTION": "15.09064035",
    "ECCENTRICITY": "0.0050234",
    "INCLINATION": "98.8929",
    "RA_OF_ASC_NODE": "240.1922",
    "ARG_OF_PERICENTER": "8.8856",
    "MEAN_ANOMALY": "351.3246",
    "EPHEMERIS_TYPE": "0",
    "ELEMENT_SET_NO": "999",
    "REV_AT_EPOCH": "26045",
    "BSTAR": "0.00033057",
    "MEAN_MOTION_DOT": "0.00005305",
    "MEAN_MOTION_DDOT": "0",
    "FILE": "3965518",
    "TLE_LINE0": "0 H-2A R/B",
    "TLE_LINE1": "1 43682U 18084L   23209.54594943  .00005305  00000-0  33057-3 0  9997",
    "TLE_LINE2": "2 43682  98.8929 240.1922 0050234   8.8856 351.3246 15.09064035260453",
    "OBJECT_ID": "2018-084L",
    "OBJECT_NUMBER": "43682",
    "SEMIMAJOR_AXIS": "6917.196",
    "PERIOD": "95.423",
    "APOGEE": "573.809",
    "PERIGEE": "504.313",
    "DECAYED": "0"
  },
  {
    "COMMENT": "GENERATED VIA SPACETRACK.ORG API",
    "ORIGINATOR": "18 SPCS",
    "NORAD_CAT_ID": "43682",
    "OBJECT_NAME": "H-2A R/B",
    "OBJECT_TYPE": "ROCKET BODY",
    "CLASSIFICATION_TYPE": "U",
    "INTLDES": "18084L",
    "EPOCH": "2023-07-28 16:17:07",
    "EPOCH_MICROSECONDS": "714464",
    "MEAN_MOTION": "15.09065512",
    "ECCENTRICITY": "0.0050216",
    "INCLINATION": "98.893",
    "RA_OF_ASC_NODE": "240.3458",
    "ARG_OF_PERICENTER": "8.4552",
    "MEAN_ANOMALY": "351.7507",
    "EPHEMERIS_TYPE": "0",
    "ELEMENT_SET_NO": "999",
    "REV_AT_EPOCH": "26047",
    "BSTAR": "0.00032313",
    "MEAN_MOTION_DOT": "0.00005184",
    "MEAN_MOTION_DDOT": "0",
    "FILE": "3965569",
    "TLE_LINE0": "0 H-2A R/B",
    "TLE_LINE1": "1 43682U 18084L   23209.67856151  .00005184  00000-0  32313-3 0  9992",
    "TLE_LINE2": "2 43682  98.8930 240.3458 0050216   8.4552 351.7507 15.09065512260477",
    "OBJECT_ID": "2018-084L",
    "OBJECT_NUMBER": "43682",
    "SEMIMAJOR_AXIS": "6917.191",
    "PERIOD": "95.423",
    "APOGEE": "573.792",
    "PERIGEE": "504.321",
    "DECAYED": "0"
  },
  {
    "COMMENT": "GENERATED VIA SPACETRACK.ORG API",
    "ORIGINATOR": "18 SPCS",
    "NORAD_CAT_ID": "43682",
    "OBJECT_NAME": "H-2A R/B",
    "OBJECT_TYPE": "ROCKET BODY",
    "CLASSIFICATION_TYPE": "U",
    "INTLDES": "18084L",
    "EPOCH": "2023-07-29 19:20:17",
    "EPOCH_MICROSECONDS": "547360",
    "MEAN_MOTION": "15.09079644",
    "ECCENTRICITY": "0.0050086",
    "INCLINATION": "98.8928",
    "RA_OF_ASC_NODE": "241.6513",
    "ARG_OF_PERICENTER": "4.7193",
    "MEAN_ANOMALY": "355.4494",
    "EPHEMERIS_TYPE": "0",
    "ELEMENT_SET_NO": "999",
    "REV_AT_EPOCH": "26064",
    "BSTAR": "0.00034593",
    "MEAN_MOTION_DOT": "0.00005557",
    "MEAN_MOTION_DDOT": "0",
    "FILE": "3966476",
    "TLE_LINE0": "0 H-2A R/B",
    "TLE_LINE1": "1 43682U 18084L   23210.80575865  .00005557  00000-0  34593-3 0  9995",
    "TLE_LINE2": "2 43682  98.8928 241.6513 0050086   4.7193 355.4494 15.09079644260641",
    "OBJECT_ID": "2018-084L",
    "OBJECT_NUMBER": "43682",
    "SEMIMAJOR_AXIS": "6917.148",
    "PERIOD": "95.422",
    "APOGEE": "573.658",
    "PERIGEE": "504.368",
    "DECAYED": "0"
  },
  {
    "COMMENT": "GENERATED VIA SPACETRACK.ORG API",
    "ORIGINATOR": "18 SPCS",
    "NORAD_CAT_ID": "43682",
    "OBJECT_NAME": "H-2A R/B",
    "OBJECT_TYPE": "ROCKET BODY",
    "CLASSIFICATION_TYPE": "U",
    "INTLDES": "18084L",
    "EPOCH": "2023-07-31 01:34:23",
    "EPOCH_MICROSECONDS": "945952",
    "MEAN_MOTION": "15.09095247",
    "ECCENTRICITY": "0.0049957",
    "INCLINATION": "98.8923",
    "RA_OF_ASC_NODE": "243.1104",
    "ARG_OF_PERICENTER": "0.4728",
    "MEAN_ANOMALY": "359.6535",
    "EPHEMERIS_TYPE": "0",
    "ELEMENT_SET_NO": "999",
    "REV_AT_EPOCH": "26083",
    "BSTAR": "0.00035324",
    "MEAN_MOTION_DOT": "0.00005678",
    "MEAN_MOTION_DDOT": "0",
    "FILE": "3967536",
    "TLE_LINE0": "0 H-2A R/B",
    "TLE_LINE1": "1 43682U 18084L   23212.06555493  .00005678  00000-0  35324-3 0  9997",
    "TLE_LINE2": "2 43682  98.8923 243.1104 0049957   0.4728 359.6535 15.09095247260831",
    "OBJECT_ID": "2018-084L",
    "OBJECT_NUMBER": "43682",
    "SEMIMAJOR_AXIS": "6917.100",
    "PERIOD": "95.421",
    "APOGEE": "573.521",
    "PERIGEE": "504.410",
    "DECAYED": "0"
  },
  {
    "COMMENT": "GENERATED VIA SPACETRACK.ORG API",
    "ORIGINATOR": "18 SPCS",
    "NORAD_CAT_ID": "43682",
    "OBJECT_NAME": "H-2A R/B",
    "OBJECT_TYPE": "ROCKET BODY",
    "CLASSIFICATION_TYPE": "U",
    "INTLDES": "18084L",
    "EPOCH": "2023-08-01 15:45:52",
    "EPOCH_MICROSECONDS": "665120",
    "MEAN_MOTION": "15.09113938",
    "ECCENTRICITY": "0.0049837",
    "INCLINATION": "98.8916",
    "RA_OF_ASC_NODE": "244.9533",
    "ARG_OF_PERICENTER": "355.0537",
    "MEAN_ANOMALY": "5.0189",
    "EPHEMERIS_TYPE": "0",
    "ELEMENT_SET_NO": "999",
    "REV_AT_EPOCH": "26107",
    "BSTAR": "0.00036666",
    "MEAN_MOTION_DOT": "0.000059",
    "MEAN_MOTION_DDOT": "0",
    "FILE": "3968899",
    "TLE_LINE0": "0 H-2A R/B",
    "TLE_LINE1": "1 43682U 18084L   23213.65685955  .00005900  00000-0  36666-3 0  9998",
    "TLE_LINE2": "2 43682  98.8916 244.9533 0049837 355.0537   5.0189 15.09113938261074",
    "OBJECT_ID": "2018-084L",
    "OBJECT_NUMBER": "43682",
    "SEMIMAJOR_AXIS": "6917.043",
    "PERIOD": "95.420",
    "APOGEE": "573.381",
    "PERIGEE": "504.436",
    "DECAYED": "0"
  }
]